1 44850U 19088A   20006.79796928  .00000062  00000-0  00000+0 0  9999
2 44850  64.8372 152.5881 0009348 263.9261 178.6388  2.13102523   567
1 44851U 19088B   19345.64159169  .00000096  00000-0  00000+0 0  9995
2 44851  64.8061 153.3796 0071082  62.2794  92.0960  2.10619712    06
1 44852U 19089A   20007.35534626  .00000428  00000-0  40669-4 0  9996
2 44852  36.9699 336.1127 0006835 219.9310 140.0930 14.99415060  4018
1 44853U 19089B   20007.35904055  .00000404  00000-0  38947-4 0  9994
2 44853  36.9691 336.1424 0006721 210.2063 149.8296 14.99203377  4023
1 44854U 19089C   20007.29706039  .00000248  00000-0  26507-4 0  9995
2 44854  36.9685 336.5729 0007927 196.2871 163.7635 14.98943112  3958
1 44855U 19089D   20007.30187478  .00000645  00000-0  59115-4 0  9990
2 44855  36.9694 336.6105 0006201 190.4655 169.5972 14.98685594  4011
1 44856U 19089E   20007.37684073  .00000401  00000-0  39645-4 0  9997
2 44856  36.9706 336.2848 0005043 170.7468 189.3367 14.98217449  4021
1 44857U 19089F   20007.38657094  .00000171  00000-0  20916-4 0  9997
2 44857  36.9672 336.3490 0005343 146.2571 213.8512 14.97671529  4021
1 44858U 19089G   20007.38164936  .00000500  00000-0  48131-4 0  9991
2 44858  36.9716 336.3299 0005149 152.1167 207.9858 14.97958662  4022
1 44859U 19089H   20007.24148397  .00000045  00000-0  10209-4 0  9999
2 44859  36.9743 337.0761 0005396 180.1446 179.9296 14.98323532  4016
1 44860U 19089J   20007.30412859  .00000630  00000-0  58048-4 0  9998
2 44860  36.9690 336.6281 0006029 184.2554 175.8143 14.98561120  4013
1 44861U 19089K   20007.30327249 -.00000079  00000-0  00000+0 0  9995
2 44861  36.9702 336.6211 0007229 183.0559 177.0197 14.98602567  3952
1 44862U 19089L   20007.35171086  .00000246  00000-0  21603-4 0  9999
2 44862  36.9808 334.3348 0039020 315.6469  44.1152 15.07012655  4065
1 44863U 19089M   20007.30249726  .00000617  00000-0  56834-4 0  9998
2 44863  36.9688 336.6144 0006057 188.4324 171.6327 14.98650870  3853
1 44864U 19090A   20006.59489272  .00000034  00000-0  00000+0 0  9995
2 44864  55.0212 141.6612 0013429 255.8017 186.2770  1.86231788   400
1 44865U 19090B   20006.79969961  .00000034  00000-0  10000-3 0  9991
2 44865  55.0246 141.6763 0102091 179.4316 220.2467  1.83349252   395
1 44866U 19090C   20006.76722156  .00000036  00000-0  10000-3 0  9994
2 44866  54.8399 141.5655 0077889 349.8783   9.9252  1.78360820   389
1 44867U 19090D   20006.43284570  .00035834  00000-0  10465-2 0  9990
2 44867  55.0177 130.5454 5794614 177.0973 189.0565  4.43666235   933
1 44868U 19091A   20006.92207126 -.00000182  00000-0  00000-0 0  9999
2 44868   0.0651 266.8288 0002119  13.4364 307.7256  1.00272929   493
1 44869U 19091B   20006.92945391  .00002362  00000-0  33466-3 0  9999
2 44869  26.9238 264.9512 6018214 203.7785 109.7130  4.03342518   872
1 44873U 19092A   20007.49852727 -.00000013  00000-0  49327-5 0  9995
2 44873  97.8198 193.8554 0001425  81.7141 278.4242 14.81127866  2981
1 44874U 19092B   20007.49605859 -.00000047  00000-0 -35163-6 0  9990
2 44874  98.2254 193.9747 0010015 215.7361 144.0734 14.56776039  2925
1 44875U 19092C   20006.57642099  .00001175  00000-0  61678-4 0  9995
2 44875  98.0029 194.3956 0127832 333.7054  25.7730 15.11281848  2895
1 44876U 19092D   20007.04452349 -.00000066  00000-0  00000+0 0  9992
2 44876  97.4524 193.1439 0011660 213.7981 146.2512 15.16233479  2977
1 44877U 19092E   20006.57885682 -.00000067  00000-0  00000+0 0  9991
2 44877  97.4462 192.6810 0012889 221.9314 138.1107 15.16536935  2907
1 44878U 19092F   20006.52979193 -.00000066  00000-0  00000-0 0  9998
2 44878  97.4608 192.6297 0014136 195.4542 164.6373 15.15184049  2862
1 44879U 19093A   20007.49173792  .00000103  00000-0  20053-4 0  9993
2 44879  97.9751  84.5019 0014974 198.2742 161.7933 14.81297991  2729
1 44880U 19093B   20007.49100841  .00000093  00000-0  18712-4 0  9997
2 44880  97.9751  84.5029 0014824 199.6820 160.3823 14.81357069  2713
1 44881U 19093C   20007.49038822 -.00000084  00000-0 -38057-5 0  9994
2 44881  97.9759  84.5052 0014998 197.1355 162.9353 14.81404282  2712
1 44882U 19093D   20007.49019080  .00000086  00000-0  17905-4 0  9998
2 44882  97.9789  84.5119 0015936 200.8763 159.1801 14.81422427  2715
1 44883U 19093E   20007.48920914  .00000052  00000-0  13327-4 0  9992
2 44883  97.9768  84.5075 0001274  86.0371 274.0986 14.81511432  2720
1 44884U 19093F   20007.48616246  .00000077  00000-0  16581-4 0  9995
2 44884  97.9732  84.5051 0013238 206.4408 153.6132 14.81747948  2715
1 44885U 19093G   20007.48370369  .00000175  00000-0  28933-4 0  9992
2 44885  97.9748  84.5118 0014059 209.6900 150.3516 14.81948508  2716
1 44886U 19093H   20007.47912123  .00000070  00000-0  15514-4 0  9997
2 44886  97.9766  84.5216 0014482 216.6103 143.4124 14.82316790  2710
1 44887U 19093J   20007.41169260  .00000119  00000-0  21647-4 0  9996
2 44887  97.9768  84.4539 0014308 216.7210 143.3021 14.82312708  2706
1 44888U 19093K   20006.93408947  .00000553  00000-0  32000-4 0  9998
2 44888  97.8804  84.5138 0123777 321.0161  38.2212 15.10897093  2698
1 44889U 19093L   20007.43127761  .00000054  00000-0  13891-4 0  9990
2 44889  97.9711  84.4181 0015304 190.2795 169.8103 14.80722551  2635
1 44890U 19093M   20007.44012148  .00000116  00000-0  19799-4 0  9997
2 44890  97.9239  84.4602 0048026 227.0913 132.6272 14.85473765  2638
1 44891U 19093N   20007.43227378  .00000069  00000-0  14462-4 0  9999
2 44891  98.0332  84.7080 0024255 332.0272  27.9639 14.86122961  2634
1 44903U 19095A   20006.47619005 -.00000029  00000-0  00000-0 0  9996
2 44903   0.5467 282.5552 0024070 230.0564 268.0344  1.01400061   130
1 44904U 19095B   20007.08911758 -.00000087  00000-0  00000+0 0  9998
2 44904   0.4325 273.1808 0079109  30.3640  55.6958  1.02971761   145
1 44905U 19096A   20006.74883950  .00000017  00000-0  51409-4 0  9990
2 44905  82.5194 103.6307 0004632 285.8651  74.1916 12.41076735  1345
1 44906U 19096B   20006.75134298  .00000023  00000-0  10071-3 0  9992
2 44906  82.5241 103.6431 0004517 306.2500  53.8166 12.40787067  1336
1 44907U 19096C   20007.47955477 -.00000063  00000-0 -53920-3 0  9999
2 44907  82.5209 103.1880 0004866 322.3164  37.7537 12.40513624  1425
1 44908U 19096D   20007.39639734  .00000223  00000-0  15840-2 0  9990
2 44908  82.5247 103.2480 0004088 299.6163  60.4508 12.40790152  1419
1 44909U 19096E   20006.73831752  .00000010  00000-0  00000+0 0  9995
2 44909  82.5239 103.4398 0207943 245.7749 112.1500 12.79700976  1377
1 44910U 19097A   20006.95919748 -.00000343  00000-0  00000-0 0  9995
2 44910   0.1416 287.6418 0005173  23.9765 254.7576  1.00276601   117
1 44911U 19097B   20007.21266312  .00005748  00000-0  11801-1 0  9993
2 44911  17.8781 306.0983 8467346 197.7411  83.1948  0.96012391   116
1 44978U 20002A   20007.77875256 -.00000185  00000-0  00000+0 0  9996
2 44978  27.4606 333.9895 7302293 179.8181 101.4256  2.28012752    08
1 44979U 20002B   20007.71204471  .00000029 -31338-6  00000+0 0  9997
2 44979  27.4411 334.0262 7242350 178.7599  49.1275  2.39351291    06
